[{"OBJECT_NAME":"STARLINK-34937","OBJECT_ID":"2025-243R","EPOCH":"2026-03-09T21:57:05.969088","MEAN_MOTION":15.30191825,"ECCENTRICITY":0.00012043,"INCLINATION":53.1565,"RA_OF_ASC_NODE":244.5348,"ARG_OF_PERICENTER":76.4709,"MEAN_ANOMALY":283.6426,"EPHEMERIS_TYPE":0,"CLASSIFICATION_TYPE":"U","NORAD_CAT_ID":66192,"ELEMENT_SET_NO":999,"REV_AT_EPOCH":2068,"BSTAR":0.001165133,"MEAN_MOTION_DOT":0.00034299,"MEAN_MOTION_DDOT":0},{"OBJECT_NAME":"AUREOLE 2","OBJECT_ID":"1973-107A","EPOCH":"2026-03-09T19:32:26.968128","MEAN_MOTION":15.58296371,"ECCENTRICITY":0.01243366,"INCLINATION":73.8954,"RA_OF_ASC_NODE":41.4828,"ARG_OF_PERICENTER":3.3524,"MEAN_ANOMALY":356.8494,"EPHEMERIS_TYPE":0,"CLASSIFICATION_TYPE":"U","NORAD_CAT_ID":7003,"ELEMENT_SET_NO":999,"REV_AT_EPOCH":68892,"BSTAR":0.00079431495,"MEAN_MOTION_DOT":0.00087862,"MEAN_MOTION_DDOT":0}]
